[{"OBJECT_NAME":"HEAD-1","OBJECT_ID":"2017-072B","EPOCH":"2026-03-10T00:09:55.710720","MEAN_MOTION":14.28734947,"ECCENTRICITY":0.0011073,"INCLINATION":98.9629,"RA_OF_ASC_NODE":84.8369,"ARG_OF_PERICENTER":82.9382,"MEAN_ANOMALY":277.3057,"EPHEMERIS_TYPE":0,"CLASSIFICATION_TYPE":"U","NORAD_CAT_ID":43011,"ELEMENT_SET_NO":999,"REV_AT_EPOCH":43319,"BSTAR":0.00021004086,"MEAN_MOTION_DOT":4.82e-6,"MEAN_MOTION_DDOT":0},{"OBJECT_NAME":"SL-3 DEB","OBJECT_ID":"1982-116C","EPOCH":"2026-03-09T11:26:17.237760","MEAN_MOTION":14.16002931,"ECCENTRICITY":0.00543871,"INCLINATION":81.2458,"RA_OF_ASC_NODE":83.7055,"ARG_OF_PERICENTER":240.8292,"MEAN_ANOMALY":247.5609,"EPHEMERIS_TYPE":0,"CLASSIFICATION_TYPE":"U","NORAD_CAT_ID":13720,"ELEMENT_SET_NO":999,"REV_AT_EPOCH":23227,"BSTAR":4.1874988e-5,"MEAN_MOTION_DOT":9.6e-7,"MEAN_MOTION_DDOT":0}]
